STARLINK-3609           
1 51808U 22017AS  26068.88948784  .00000074  00000+0  22737-4 0  9997
2 51808  53.2191 338.2216 0001340 105.4899 254.6241 15.08838625223999
SEDNA-2                 
1 63153U 25009DQ  26068.79893845  .00008085  00000+0  49393-3 0  9990
2 63153  97.4615 144.8075 0010309  53.0260 307.1912 15.10492622 63116
